#aV2021  9 11  0  0  0.00000000     288 DD+AD WGS84 FIT  NGA
## 2174 518400.00000000   300.00000000 59468 0.0000000000000
+   32     1  2  3  4  5  6  7  8  9 10 11 12 13 14 15 16 17
+         18 19 20 21 22 23 24 25 26 27 28 29 30 31 32  0  0
+          0  0  0  0  0  0  0  0  0  0  0  0  0  0  0  0  0
+          0  0  0  0  0  0  0  0  0  0  0  0  0  0  0  0  0
+          0  0  0  0  0  0  0  0  0  0  0  0  0  0  0  0  0
++         2  2  2  2  2  2  2  2  2  2  2  2  2  2  2  2  2
++         2  2  2  2  2  2  2  2  2  2  2  2  2  2  2  0  0
++         0  0  0  0  0  0  0  0  0  0  0  0  0  0  0  0  0
++         0  0  0  0  0  0  0  0  0  0  0  0  0  0  0  0  0
++         0  0  0  0  0  0  0  0  0  0  0  0  0  0  0  0  0
%c cc cc ccc ccc cccc cccc cccc cccc ccccc ccccc ccccc ccccc
%c cc cc ccc ccc cccc cccc cccc cccc ccccc ccccc ccccc ccccc
%f  0.0000000  0.000000000  0.00000000000  0.000000000000000
%f  0.0000000  0.000000000  0.00000000000  0.000000000000000
%i    0    0    0    0      0      0      0      0         0
%i    0    0    0    0      0      0      0      0         0
/*      NGA, ST. LOUIS,MO.                                  
/*   EPHEMERIS COMPUTED FROM 2 DAYS OF DATA                 
/*   EPOCHA v7 SMOOTHER                                     
/*   G2139 IERS2010 SATIGS SATAPC                           
*  2021  9 11  3 45  0.00000000
P  1  -7339.760867 -13699.638443 -21859.329971    571.170725                    
V  1  26752.426209  -3516.758798  -6539.812316     -0.111033                    
P  2 -16707.124846  14474.000802  15433.616633   -631.638146                    
V  2 -18364.157627   2124.827886 -22778.559865     -0.021646                    
P  3 -11159.429986 -22985.953718  -7552.839345   -285.213135                    
V  3   7532.822914   6082.473327 -29948.803464     -0.132086                    
P  4  -2398.532356 -21269.101434  15688.395753   -204.306167                    
V  4  10036.898691 -17343.932869 -22048.228429     -0.000157                    
P  5    538.358610  19824.706427  17422.025262    -54.019698                    
V  5 -15850.161328 -16111.185877  18803.879724     -0.012599                    
P  6 -25436.912604   6343.043777   4501.332094     72.174823                    
V  6  -5825.884443  -1212.744695 -31568.956012      0.072216                    
P  7 -21588.791004  -7542.315223  14284.822958    242.877692                    
V  7  16967.259740  -4072.141984  23633.142459      0.071897                    
P  8   5344.340440 -25134.019227  -6047.883769    -36.012375                    
V  8   5412.411360  -6179.733578  30829.079154     -0.014402                    
P  9 -11425.619796 -11544.768780  20943.303724   -360.748081                    
V  9  10491.409737 -24648.378708  -7861.709243     -0.006616                    
P 10  19381.523528   5718.031596 -17265.231617   -200.814620                    
V 10  12355.674907  18283.171745  19514.208645     -0.078401                    
P 11 -18801.259964  11684.058881  14656.359241     16.979827                    
V 11 -18745.773419   -714.488893 -23465.169920      0.027241                    
P 12   8950.733756  23762.797761  -8268.760692    -95.667360                    
V 12  -7351.539078  -7255.713211 -29579.109535     -0.054460                    
P 13 -13048.005254  23039.514966   -325.233611    183.803596                    
V 13  -2457.236630  -1139.398090  32025.014719      0.053125                    
P 14 -19172.179270  -5778.584032 -17475.660695      3.985360                    
V 14 -11340.822034 -19147.133698  18722.311707     -0.081897                    
P 15  -1910.370463  25537.853064  -6715.664590   -121.966100                    
V 15  -5877.814085   6830.153961  29675.710133      0.027245                    
P 16   5665.387750 -16297.965325  19810.177784   -388.599462                    
V 16  14928.591730  21091.054744  13366.419294     -0.063594                    
P 17 -16415.747458   2793.913109 -20263.064310    502.909022                    
V 17  10850.082179 -24357.556091 -11889.635295      0.055834                    
P 18  22695.211660   6066.555233  12467.777559    323.690459                    
V 18 -15476.202747   3791.040465  26211.319251     -0.042219                    
P 19 -18220.270894  11118.413170 -15975.854745     51.377576                    
V 19   8089.691509 -18147.041524 -22389.537646      0.049639                    
P 20  -9370.182273  12667.476549  21364.997270    519.201869                    
V 20 -19757.516948 -18791.090576   2210.656609     -0.001992                    
P 21   1521.886223 -15325.026666 -20884.392698    142.087966                    
V 21  27805.979953  -5012.041934   6050.600195      0.019827                    
P 22  -6438.190947 -21678.361325 -13916.916279   -516.177571                    
V 22  14268.909413  11201.902696 -23550.023064      0.092943                    
P 23  20026.268776  15327.461188  -8474.511215     59.058280                    
V 23   4880.977874   9825.085276  29315.978874     -0.049142                    
P 24   2769.656640  15656.422963 -21529.800616    231.806870                    
V 24 -26326.999064   5226.972552    825.528971      0.088301                    
P 25  16791.626398  20740.975785    814.190683    206.287107                    
V 25  -1268.178662   2680.086868 -31524.096397      0.063160                    
P 26  14802.928320  -6350.984503  21093.115448    132.859297                    
V 26  17062.632936  20879.011300  -5392.437973      0.042288                    
P 27  12119.378655 -23110.502361   3543.840371   -191.214562                    
V 27    644.127620   5419.681376  31891.878722     -0.053465                    
P 28 -16284.226132    304.939519 -20392.093835    503.393549                    
V 28 -13629.247789 -23520.159801  10449.892785     -0.071499                    
P 29   8096.282170  14520.148713  20651.108299   -409.876228                    
V 29 -12480.005384  23142.166120 -11415.838228     -0.057465                    
P 30 -26458.129809    284.427764   3561.791498   -471.638875                    
V 30   4031.294428  -3789.096072  30624.827544     -0.038694                    
P 31  25050.420054  -7145.185054   6233.005387   -139.119265                    
V 31   8162.722378   1617.856177 -30023.044895     -0.020348                    
P 32  17116.050485  -6728.635969 -18984.304007      0.556249                    
V 32  -7736.712966  23208.456238 -15282.372613     -0.033444                    
EOF
